[
    {
        "Altitude(m)": 591817.8078792641,
        "Argument of Periapsis(deg)": -0.03013754771062987,
        "Eccentricity": 0.0,
        "Inclination(deg)": 97.0,
        "Latitude(deg)": -82.97394642927495,
        "Longitude(deg)": 99.10409264770742,
        "Mean Anomaly(deg)": -89.01550897441668,
        "RAAN(deg)": 120.00792940482468,
        "Satellite Name": "Starlink Shell 3 1852",
        "Satellite Number": 1852,
        "Semi-Major Axis(m)": 6938478.169268562,
        "Time(s)": 760
    },
    {
        "Altitude(m)": 591807.377995459,
        "Argument of Periapsis(deg)": -0.030534094391032898,
        "Eccentricity": 0.0,
        "Inclination(deg)": 97.0,
        "Latitude(deg)": -82.86452367563378,
        "Longitude(deg)": 94.11132311933655,
        "Mean Anomaly(deg)": -88.39003277671165,
        "RAAN(deg)": 120.00803373909866,
        "Satellite Name": "Starlink Shell 3 1852",
        "Satellite Number": 1852,
        "Semi-Major Axis(m)": 6938478.169268562,
        "Time(s)": 770
    },
    {
        "Altitude(m)": 591791.8443519413,
        "Argument of Periapsis(deg)": -0.030930641071435925,
        "Eccentricity": 0.0,
        "Inclination(deg)": 97.0,
        "Latitude(deg)": -82.70416143974637,
        "Longitude(deg)": 89.301089255334,
        "Mean Anomaly(deg)": -87.76455657900664,
        "RAAN(deg)": 120.00813807337268,
        "Satellite Name": "Starlink Shell 3 1852",
        "Satellite Number": 1852,
        "Semi-Major Axis(m)": 6938478.169268562,
        "Time(s)": 780
    },
    {
        "Altitude(m)": 591771.2132195446,
        "Argument of Periapsis(deg)": -0.031327187751838945,
        "Eccentricity": 0.0,
        "Inclination(deg)": 97.0,
        "Latitude(deg)": -82.49612292729488,
        "Longitude(deg)": 84.72417221027723,
        "Mean Anomaly(deg)": -87.13908038130158,
        "RAAN(deg)": 120.0082424076467,
        "Satellite Name": "Starlink Shell 3 1852",
        "Satellite Number": 1852,
        "Semi-Major Axis(m)": 6938478.169268562,
        "Time(s)": 790
    },
    {
        "Altitude(m)": 591745.4929339814,
        "Argument of Periapsis(deg)": -0.031723734432241975,
        "Eccentricity": 0.0,
        "Inclination(deg)": 97.0,
        "Latitude(deg)": -82.24424131206334,
        "Longitude(deg)": 80.41514487820926,
        "Mean Anomaly(deg)": -86.51360418359653,
        "RAAN(deg)": 120.0083467419207,
        "Satellite Name": "Starlink Shell 3 1852",
        "Satellite Number": 1852,
        "Semi-Major Axis(m)": 6938478.169268562,
        "Time(s)": 800
    },
    {
        "Altitude(m)": 591714.6938923601,
        "Argument of Periapsis(deg)": -0.032120281112645,
        "Eccentricity": 0.0,
        "Inclination(deg)": 97.0,
        "Latitude(deg)": -81.95262945097453,
        "Longitude(deg)": 76.39301852898375,
        "Mean Anomaly(deg)": -85.88812798589147,
        "RAAN(deg)": 120.00845107619472,
        "Satellite Name": "Starlink Shell 3 1852",
        "Satellite Number": 1852,
        "Semi-Major Axis(m)": 6938478.169268562,
        "Time(s)": 810
    },
    {
        "Altitude(m)": 591678.8285487831,
        "Argument of Periapsis(deg)": -0.03251682779304802,
        "Eccentricity": 0.0,
        "Inclination(deg)": 97.0,
        "Latitude(deg)": -81.62543328928923,
        "Longitude(deg)": 72.6634853716817,
        "Mean Anomaly(deg)": -85.26265178818647,
        "RAAN(deg)": 120.00855541046872,
        "Satellite Name": "Starlink Shell 3 1852",
        "Satellite Number": 1852,
        "Semi-Major Axis(m)": 6938478.169268562,
        "Time(s)": 820
    },
    {
        "Altitude(m)": 591637.9114091198,
        "Argument of Periapsis(deg)": -0.032913374473451044,
        "Eccentricity": 0.0,
        "Inclination(deg)": 97.0,
        "Latitude(deg)": -81.26664764646523,
        "Longitude(deg)": 69.22190488579189,
        "Mean Anomaly(deg)": -84.6371755904814,
        "RAAN(deg)": 120.00865974474274,
        "Satellite Name": "Starlink Shell 3 1852",
        "Satellite Number": 1852,
        "Semi-Major Axis(m)": 6938478.169268562,
        "Time(s)": 830
    },
    {
        "Altitude(m)": 591591.9590248755,
        "Argument of Periapsis(deg)": -0.03330992115385407,
        "Eccentricity": 0.0,
        "Inclination(deg)": 97.0,
        "Latitude(deg)": -80.87999587621742,
        "Longitude(deg)": 66.05635028693838,
        "Mean Anomaly(deg)": -84.01169939277635,
        "RAAN(deg)": 120.00876407901674,
        "Satellite Name": "Starlink Shell 3 1852",
        "Satellite Number": 1852,
        "Semi-Major Axis(m)": 6938478.169268562,
        "Time(s)": 840
    },
    {
        "Altitude(m)": 591540.9899862483,
        "Argument of Periapsis(deg)": -0.0337064678342571,
        "Eccentricity": 0.0,
        "Inclination(deg)": 97.0,
        "Latitude(deg)": -80.46886430116133,
        "Longitude(deg)": 63.1502905786043,
        "Mean Anomaly(deg)": -83.3862231950713,
        "RAAN(deg)": 120.00886841329077,
        "Satellite Name": "Starlink Shell 3 1852",
        "Satellite Number": 1852,
        "Semi-Major Axis(m)": 6938478.169268562,
        "Time(s)": 850
    },
    {
        "Altitude(m)": 591485.0249142597,
        "Argument of Periapsis(deg)": -0.03410301451466012,
        "Eccentricity": 0.0,
        "Inclination(deg)": 97.0,
        "Latitude(deg)": -80.03627808407943,
        "Longitude(deg)": 60.48472366320491,
        "Mean Anomaly(deg)": -82.76074699736624,
        "RAAN(deg)": 120.00897274756477,
        "Satellite Name": "Starlink Shell 3 1852",
        "Satellite Number": 1852,
        "Semi-Major Axis(m)": 6938478.169268562,
        "Time(s)": 860
    },
    {
        "Altitude(m)": 591424.0864520951,
        "Argument of Periapsis(deg)": -0.034499561195063144,
        "Eccentricity": 0.0,
        "Inclination(deg)": 97.0,
        "Latitude(deg)": -79.58490527926553,
        "Longitude(deg)": 58.03974662543096,
        "Mean Anomaly(deg)": -82.13527079966124,
        "RAAN(deg)": 120.00907708183878,
        "Satellite Name": "Starlink Shell 3 1852",
        "Satellite Number": 1852,
        "Semi-Major Axis(m)": 6938478.169268562,
        "Time(s)": 870
    },
    {
        "Altitude(m)": 591358.1992555214,
        "Argument of Periapsis(deg)": -0.03489610787546617,
        "Eccentricity": 0.0,
        "Inclination(deg)": 97.0,
        "Latitude(deg)": -79.11707804370371,
        "Longitude(deg)": 55.795628255338116,
        "Mean Anomaly(deg)": -81.50979460195619,
        "RAAN(deg)": 120.00918141611278,
        "Satellite Name": "Starlink Shell 3 1852",
        "Satellite Number": 1852,
        "Semi-Major Axis(m)": 6938478.169268562,
        "Time(s)": 880
    },
    {
        "Altitude(m)": 591287.3899824952,
        "Argument of Periapsis(deg)": -0.0352926545558692,
        "Eccentricity": 0.0,
        "Inclination(deg)": 97.0,
        "Latitude(deg)": -78.63482283967214,
        "Longitude(deg)": 53.73349058714889,
        "Mean Anomaly(deg)": -80.88431840425116,
        "RAAN(deg)": 120.00928575038678,
        "Satellite Name": "Starlink Shell 3 1852",
        "Satellite Number": 1852,
        "Semi-Major Axis(m)": 6938478.169268562,
        "Time(s)": 890
    },
    {
        "Altitude(m)": 591211.6872819135,
        "Argument of Periapsis(deg)": -0.035689201236272214,
        "Eccentricity": 0.0,
        "Inclination(deg)": 97.0,
        "Latitude(deg)": -78.13989408480161,
        "Longitude(deg)": 51.83570028639191,
        "Mean Anomaly(deg)": -80.25884220654606,
        "RAAN(deg)": 120.00939008466078,
        "Satellite Name": "Starlink Shell 3 1852",
        "Satellite Number": 1852,
        "Semi-Major Axis(m)": 6938478.169268562,
        "Time(s)": 900
    },
    {
        "Altitude(m)": 591131.1217815079,
        "Argument of Periapsis(deg)": -0.036085747916675244,
        "Eccentricity": 0.0,
        "Inclination(deg)": 97.0,
        "Latitude(deg)": -77.6338077836068,
        "Longitude(deg)": 50.08605588639763,
        "Mean Anomaly(deg)": -79.63336600884104,
        "RAAN(deg)": 120.0094944189348,
        "Satellite Name": "Starlink Shell 3 1852",
        "Satellite Number": 1852,
        "Semi-Major Axis(m)": 6938478.169268562,
        "Time(s)": 910
    },
    {
        "Altitude(m)": 591045.7260749077,
        "Argument of Periapsis(deg)": -0.03648229459707827,
        "Eccentricity": 0.0,
        "Inclination(deg)": 97.0,
        "Latitude(deg)": -77.11787316711252,
        "Longitude(deg)": 48.4698421276417,
        "Mean Anomaly(deg)": -79.00788981113604,
        "RAAN(deg)": 120.0095987532088,
        "Satellite Name": "Starlink Shell 3 1852",
        "Satellite Number": 1852,
        "Semi-Major Axis(m)": 6938478.169268562,
        "Time(s)": 920
    },
    {
        "Altitude(m)": 590955.5347078606,
        "Argument of Periapsis(deg)": -0.0368788412774813,
        "Eccentricity": 0.0,
        "Inclination(deg)": 97.0,
        "Latitude(deg)": -76.59322136592881,
        "Longitude(deg)": 46.973799932880695,
        "Mean Anomaly(deg)": -78.38241361343093,
        "RAAN(deg)": 120.00970308748282,
        "Satellite Name": "Starlink Shell 3 1852",
        "Satellite Number": 1852,
        "Semi-Major Axis(m)": 6938478.169268562,
        "Time(s)": 930
    },
    {
        "Altitude(m)": 590860.5841636186,
        "Argument of Periapsis(deg)": -0.037275387957884314,
        "Eccentricity": 0.0,
        "Inclination(deg)": 97.0,
        "Latitude(deg)": -76.06083076938172,
        "Longitude(deg)": 45.5860455643167,
        "Mean Anomaly(deg)": -77.75693741572593,
        "RAAN(deg)": 120.00980742175683,
        "Satellite Name": "Starlink Shell 3 1852",
        "Satellite Number": 1852,
        "Semi-Major Axis(m)": 6938478.169268562,
        "Time(s)": 940
    }
]